
    {
      "objectName": "STARLINK-31570",
      "objectId": "2024-057E",
      "noradId": 59324,
      "epochUtc": "2026-02-26T13:38:03.870240",
      "meanMotionRevPerDay": 15.27573719,
      "eccentricity": 0.0001018,
      "inclinationDeg": 43.0025,
      "raanDeg": 250.2731,
      "argPerigeeDeg": 193.4212,
      "meanAnomalyDeg": 166.6612,
      "bstar": -0.000086461,
      "meanMotionDot": -0.0000264,
      "meanMotionDdot": 0,
      "elementSetNo": 999,
      "revAtEpoch": 10813
    },
    {
      "objectName": "STARLINK-31501",
      "objectId": "2024-060M",
      "noradId": 59359,
      "epochUtc": "2026-02-27T01:19:26.065056",
      "meanMotionRevPerDay": 15.27595491,
      "eccentricity": 0.00014783,
      "inclinationDeg": 43.0026,
      "raanDeg": 320.1568,
      "argPerigeeDeg": 270.9801,
      "meanAnomalyDeg": 89.0881,
      "bstar": -0.00002718975,
      "meanMotionDot": -0.00001011,
      "meanMotionDdot": 0,
      "elementSetNo": 999,
      "revAtEpoch": 10843
    },
    {
      "objectName": "STARLINK-31443",
      "objectId": "2024-062V",
      "noradId": 59393,
      "epochUtc": "2026-02-27T05:20:03.171552",
      "meanMotionRevPerDay": 15.29824869,
      "eccentricity": 0.00013797,
      "inclinationDeg": 53.1595,
      "raanDeg": 291.6858,
      "argPerigeeDeg": 106.4567,
      "meanAnomalyDeg": 253.6586,
      "bstar": 0.0019943724,
      "meanMotionDot": 0.0005849,
      "meanMotionDdot": 0,
      "elementSetNo": 999,
      "revAtEpoch": 10824
    },
    {
      "objectName": "STARLINK-11089 [DTC]",
      "objectId": "2024-065F",
      "noradId": 59426,
      "epochUtc": "2026-02-27T06:26:03.960960",
      "meanMotionRevPerDay": 15.69717647,
      "eccentricity": 0.00009715,
      "inclinationDeg": 53.1597,
      "raanDeg": 145.4672,
      "argPerigeeDeg": 89.5896,
      "meanAnomalyDeg": 270.5233,
      "bstar": 0.000017025789,
      "meanMotionDot": 0.00001475,
      "meanMotionDdot": 0,
      "elementSetNo": 999,
      "revAtEpoch": 10988
    },
    {
      "objectName": "STARLINK-31566",
      "objectId": "2024-068W",
      "noradId": 59475,
      "epochUtc": "2026-02-26T10:33:03.716640",
      "meanMotionRevPerDay": 15.2756655,
      "eccentricity": 0.0001271,
      "inclinationDeg": 43.0031,
      "raanDeg": 97.9172,
      "argPerigeeDeg": 248.2229,
      "meanAnomalyDeg": 111.8487,
      "bstar": 0.000043321,
      "meanMotionDot": 0.0000093,
      "meanMotionDdot": 0,
      "elementSetNo": 999,
      "revAtEpoch": 10680
    },
    {
      "objectName": "STARLINK-31674",
      "objectId": "2024-073G",
      "noradId": 59517,
      "epochUtc": "2026-02-27T06:33:50.646240",
      "meanMotionRevPerDay": 15.27580013,
      "eccentricity": 0.00012027,
      "inclinationDeg": 43.0048,
      "raanDeg": 16.7575,
      "argPerigeeDeg": 269.3946,
      "meanAnomalyDeg": 90.6768,
      "bstar": -0.000003739677,
      "meanMotionDot": -0.00000365,
      "meanMotionDdot": 0,
      "elementSetNo": 999,
      "revAtEpoch": 10458
    },
    {
      "objectName": "STARLINK-31699",
      "objectId": "2024-074T",
      "noradId": 59551,
      "epochUtc": "2026-02-27T00:25:34.153824",
      "meanMotionRevPerDay": 15.27582551,
      "eccentricity": 0.00012317,
      "inclinationDeg": 43.0049,
      "raanDeg": 43.666,
      "argPerigeeDeg": 268.5498,
      "meanAnomalyDeg": 91.5213,
      "bstar": 0.000069883361,
      "meanMotionDot": 0.00001661,
      "meanMotionDdot": 0,
      "elementSetNo": 999,
      "revAtEpoch": 10438
    },
    {
      "objectName": "STARLINK-31778",
      "objectId": "2024-080B",
      "noradId": 59602,
      "epochUtc": "2026-02-26T14:29:27.558816",
      "meanMotionRevPerDay": 15.27557435,
      "eccentricity": 0.0001737,
      "inclinationDeg": 43.0071,
      "raanDeg": 97.3616,
      "argPerigeeDeg": 271.9224,
      "meanAnomalyDeg": 88.1429,
      "bstar": 0.00015384,
      "meanMotionDot": 0.0000397,
      "meanMotionDdot": 0,
      "elementSetNo": 999,
      "revAtEpoch": 10287
    },
    {
      "objectName": "STARLINK-31806",
      "objectId": "2024-082K",
      "noradId": 59640,
      "epochUtc": "2026-02-26T11:00:17.095680",
      "meanMotionRevPerDay": 15.27571655,
      "eccentricity": 0.0002005,
      "inclinationDeg": 43.0037,
      "raanDeg": 203.2951,
      "argPerigeeDeg": 284.8299,
      "meanAnomalyDeg": 75.233,
      "bstar": -0.0000015743,
      "meanMotionDot": -0.00000306,
      "meanMotionDdot": 0,
      "elementSetNo": 999,
      "revAtEpoch": 10309
    },
    {
      "objectName": "STARLINK-31875",
      "objectId": "2024-084W",
      "noradId": 59674,
      "epochUtc": "2026-02-27T03:46:18.880608",
      "meanMotionRevPerDay": 15.27572965,
      "eccentricity": 0.00012623,
      "inclinationDeg": 43.0028,
      "raanDeg": 97.7021,
      "argPerigeeDeg": 282.8955,
      "meanAnomalyDeg": 77.1756,
      "bstar": 0.0001180128,
      "meanMotionDot": 0.00002986,
      "meanMotionDdot": 0,
      "elementSetNo": 999,
      "revAtEpoch": 10280
    },
    {
      "objectName": "STARLINK-11100 [DTC]",
      "objectId": "2024-088F",
      "noradId": 59713,
      "epochUtc": "2026-02-27T01:44:48.334560",
      "meanMotionRevPerDay": 15.69706266,
      "eccentricity": 0.00008585,
      "inclinationDeg": 53.1579,
      "raanDeg": 18.6848,
      "argPerigeeDeg": 77.0138,
      "meanAnomalyDeg": 283.0976,
      "bstar": -0.00005198668,
      "meanMotionDot": -0.0000688,
      "meanMotionDdot": 0,
      "elementSetNo": 999,
      "revAtEpoch": 10460
    },
    {
      "objectName": "STARLINK-31681",
      "objectId": "2024-090S",
      "noradId": 59746,
      "epochUtc": "2026-02-27T04:24:19.665216",
      "meanMotionRevPerDay": 15.27565828,
      "eccentricity": 0.00014584,
      "inclinationDeg": 43.0013,
      "raanDeg": 235.8804,
      "argPerigeeDeg": 271.6953,
      "meanAnomalyDeg": 88.3732,
      "bstar": -0.000065564546,
      "meanMotionDot": -0.00002065,
      "meanMotionDdot": 0,
      "elementSetNo": 999,
      "revAtEpoch": 10191
    },
    {
      "objectName": "STARLINK-31862",
      "objectId": "2024-093E",
      "noradId": 59786,
      "epochUtc": "2026-02-26T22:18:13.501152",
      "meanMotionRevPerDay": 15.27604823,
      "eccentricity": 0.000162,
      "inclinationDeg": 43.0013,
      "raanDeg": 269.3329,
      "argPerigeeDeg": 269.1914,
      "meanAnomalyDeg": 90.8752,
      "bstar": 0.000035733,
      "meanMotionDot": 0.00000722,
      "meanMotionDdot": 0,
      "elementSetNo": 999,
      "revAtEpoch": 10105
    },
    {
      "objectName": "STARLINK-31896",
      "objectId": "2024-097S",
      "noradId": 59851,
      "epochUtc": "2026-02-27T03:22:17.507424",
      "meanMotionRevPerDay": 15.27585872,
      "eccentricity": 0.00009164,
      "inclinationDeg": 43.0003,
      "raanDeg": 333.9186,
      "argPerigeeDeg": 222.967,
      "meanAnomalyDeg": 137.111,
      "bstar": 0.00005091677,
      "meanMotionDot": 0.0000114,
      "meanMotionDdot": 0,
      "elementSetNo": 999,
      "revAtEpoch": 10030
    }