STARLINK-31570          
1 59324U 24057E   26057.56810035 -.00002640  00000+0 -86461-4 0  9991
2 59324  43.0025 250.2731 0001018 193.4212 166.6612 15.27573719108139
STARLINK-31501          
1 59359U 24060M   26058.05516279 -.00001011  00000+0 -27190-4 0  9996
2 59359  43.0026 320.1568 0001478 270.9801  89.0881 15.27595491108438
STARLINK-31443          
1 59393U 24062V   26058.22225893  .00058490  00000+0  19944-2 0  9991
2 59393  53.1595 291.6858 0001379 106.4567 253.6586 15.29824869108241
STARLINK-11089 [DTC]    
1 59426U 24065F   26058.26810140  .00001475  00000+0  17026-4 0  9992
2 59426  53.1597 145.4672 0000971  89.5896 270.5233 15.69717647109880
STARLINK-31566          
1 59475U 24068W   26057.43962635  .00000930  00000+0  43321-4 0  9996
2 59475  43.0031  97.9172 0001271 248.2229 111.8487 15.27566550106805
STARLINK-31674          
1 59517U 24073G   26058.27350285 -.00000365  00000+0 -37397-5 0  9995
2 59517  43.0048  16.7575 0001202 269.3946  90.6768 15.27580013104589
STARLINK-31699          
1 59551U 24074T   26058.01775641  .00001661  00000+0  69883-4 0  9995
2 59551  43.0049  43.6660 0001231 268.5498  91.5213 15.27582551104389
STARLINK-31778          
1 59602U 24080B   26057.60379119  .00003970  00000+0  15384-3 0  9994
2 59602  43.0071  97.3616 0001737 271.9224  88.1429 15.27557435102870
STARLINK-31806          
1 59640U 24082K   26057.45853120 -.00000306  00000+0 -15743-5 0  9993
2 59640  43.0037 203.2951 0002005 284.8299  75.2330 15.27571655103091
STARLINK-31875          
1 59674U 24084W   26058.15716297  .00002986  00000+0  11801-3 0  9996
2 59674  43.0028  97.7021 0001262 282.8955  77.1756 15.27572965102809
STARLINK-11100 [DTC]    
1 59713U 24088F   26058.07278165 -.00006880  00000+0 -51987-4 0  9991
2 59713  53.1579  18.6848 0000858  77.0138 283.0976 15.69706266104603
STARLINK-31681          
1 59746U 24090S   26058.18356094 -.00002065  00000+0 -65565-4 0  9998
2 59746  43.0013 235.8804 0001458 271.6953  88.3732 15.27565828101917
STARLINK-31862          
1 59786U 24093E   26057.92932293  .00000722  00000+0  35733-4 0  9997
2 59786  43.0013 269.3329 0001620 269.1914  90.8752 15.27604823101059
STARLINK-31896          
1 59851U 24097S   26058.14048041  .00001140  00000+0  50917-4 0  9994
2 59851  43.0003 333.9186 0000916 222.9670 137.1110 15.27585872100305
